CCSDS_OMM_VERS = 2.0
CREATION_DATE  = 
ORIGINATOR     = 

OBJECT_NAME    = STARLINK-36166
OBJECT_ID      = 2025-298K
CENTER_NAME    = EARTH
REF_FRAME      = TEME
TIME_SYSTEM    = UTC
MEAN_ELEMENT_THEORY = SGP/SGP4

EPOCH          = 2026-01-04T04:00:01.998720
MEAN_MOTION    = 15.52563884
ECCENTRICITY   = .0003268
INCLINATION    = 69.9987
RA_OF_ASC_NODE = 186.7830
ARG_OF_PERICENTER = 271.5835
MEAN_ANOMALY   = 29.2522

EPHEMERIS_TYPE = 0
CLASSIFICATION_TYPE = U
NORAD_CAT_ID   = 67084
ELEMENT_SET_NO = 999
REV_AT_EPOCH   = 452
BSTAR          = -.18519E-2
MEAN_MOTION_DOT = -.112683E-2
MEAN_MOTION_DDOT = 0

CCSDS_OMM_VERS = 2.0
CREATION_DATE  = 
ORIGINATOR     = 

OBJECT_NAME    = STARLINK-35794
OBJECT_ID      = 2025-298L
CENTER_NAME    = EARTH
REF_FRAME      = TEME
TIME_SYSTEM    = UTC
MEAN_ELEMENT_THEORY = SGP/SGP4

EPOCH          = 2026-01-04T04:00:01.998720
MEAN_MOTION    = 15.45490560
ECCENTRICITY   = .0003138
INCLINATION    = 69.9995
RA_OF_ASC_NODE = 186.8005
ARG_OF_PERICENTER = 275.4222
MEAN_ANOMALY   = 8.2325

EPHEMERIS_TYPE = 0
CLASSIFICATION_TYPE = U
NORAD_CAT_ID   = 67085
ELEMENT_SET_NO = 999
REV_AT_EPOCH   = 458
BSTAR          = -.40401E-1
MEAN_MOTION_DOT = -.173129E-1
MEAN_MOTION_DDOT = 0

CCSDS_OMM_VERS = 2.0
CREATION_DATE  = 
ORIGINATOR     = 

OBJECT_NAME    = STARLINK-35841
OBJECT_ID      = 2025-298M
CENTER_NAME    = EARTH
REF_FRAME      = TEME
TIME_SYSTEM    = UTC
MEAN_ELEMENT_THEORY = SGP/SGP4

EPOCH          = 2026-01-04T04:00:01.998720
MEAN_MOTION    = 15.52566652
ECCENTRICITY   = .0003275
INCLINATION    = 69.9988
RA_OF_ASC_NODE = 186.7782
ARG_OF_PERICENTER = 272.9600
MEAN_ANOMALY   = 31.7024

EPHEMERIS_TYPE = 0
CLASSIFICATION_TYPE = U
NORAD_CAT_ID   = 67086
ELEMENT_SET_NO = 999
REV_AT_EPOCH   = 458
BSTAR          = -.18377E-2
MEAN_MOTION_DOT = -.11184E-2
MEAN_MOTION_DDOT = 0

CCSDS_OMM_VERS = 2.0
CREATION_DATE  = 
ORIGINATOR     = 

OBJECT_NAME    = STARLINK-35842
OBJECT_ID      = 2025-298N
CENTER_NAME    = EARTH
REF_FRAME      = TEME
TIME_SYSTEM    = UTC
MEAN_ELEMENT_THEORY = SGP/SGP4

EPOCH          = 2026-01-04T04:00:01.998720
MEAN_MOTION    = 15.42761748
ECCENTRICITY   = .0003426
INCLINATION    = 69.9992
RA_OF_ASC_NODE = 187.0772
ARG_OF_PERICENTER = 267.7421
MEAN_ANOMALY   = 137.1765

EPHEMERIS_TYPE = 0
CLASSIFICATION_TYPE = U
NORAD_CAT_ID   = 67087
ELEMENT_SET_NO = 999
REV_AT_EPOCH   = 458
BSTAR          = -.29758E-2
MEAN_MOTION_DOT = -.128549E-2
MEAN_MOTION_DDOT = 0

CCSDS_OMM_VERS = 2.0
CREATION_DATE  = 
ORIGINATOR     = 

OBJECT_NAME    = STARLINK-35882
OBJECT_ID      = 2025-298P
CENTER_NAME    = EARTH
REF_FRAME      = TEME
TIME_SYSTEM    = UTC
MEAN_ELEMENT_THEORY = SGP/SGP4

EPOCH          = 2026-01-04T04:00:01.998720
MEAN_MOTION    = 15.52544991
ECCENTRICITY   = .0003361
INCLINATION    = 69.9989
RA_OF_ASC_NODE = 186.7740
ARG_OF_PERICENTER = 274.7935
MEAN_ANOMALY   = 33.7204

EPHEMERIS_TYPE = 0
CLASSIFICATION_TYPE = U
NORAD_CAT_ID   = 67088
ELEMENT_SET_NO = 999
REV_AT_EPOCH   = 458
BSTAR          = -.133E-2
MEAN_MOTION_DOT = -.81236E-3
MEAN_MOTION_DDOT = 0

CCSDS_OMM_VERS = 2.0
CREATION_DATE  = 
ORIGINATOR     = 

OBJECT_NAME    = STARLINK-35763
OBJECT_ID      = 2025-298Q
CENTER_NAME    = EARTH
REF_FRAME      = TEME
TIME_SYSTEM    = UTC
MEAN_ELEMENT_THEORY = SGP/SGP4

EPOCH          = 2026-01-04T04:00:01.998720
MEAN_MOTION    = 15.52550118
ECCENTRICITY   = .0003259
INCLINATION    = 69.9989
RA_OF_ASC_NODE = 186.7716
ARG_OF_PERICENTER = 273.0289
MEAN_ANOMALY   = 37.3898

EPHEMERIS_TYPE = 0
CLASSIFICATION_TYPE = U
NORAD_CAT_ID   = 67089
ELEMENT_SET_NO = 999
REV_AT_EPOCH   = 458
BSTAR          = -.79423E-3
MEAN_MOTION_DOT = -.48785E-3
MEAN_MOTION_DDOT = 0

CCSDS_OMM_VERS = 2.0
CREATION_DATE  = 
ORIGINATOR     = 

OBJECT_NAME    = STARLINK-36060
OBJECT_ID      = 2025-298R
CENTER_NAME    = EARTH
REF_FRAME      = TEME
TIME_SYSTEM    = UTC
MEAN_ELEMENT_THEORY = SGP/SGP4

EPOCH          = 2026-01-04T04:00:01.998720
MEAN_MOTION    = 15.52593466
ECCENTRICITY   = .0003271
INCLINATION    = 69.9988
RA_OF_ASC_NODE = 186.7691
ARG_OF_PERICENTER = 267.8458
MEAN_ANOMALY   = 44.4834

EPHEMERIS_TYPE = 0
CLASSIFICATION_TYPE = U
NORAD_CAT_ID   = 67090
ELEMENT_SET_NO = 999
REV_AT_EPOCH   = 452
BSTAR          = -.26195E-2
MEAN_MOTION_DOT = -.158575E-2
MEAN_MOTION_DDOT = 0

CCSDS_OMM_VERS = 2.0
CREATION_DATE  = 
ORIGINATOR     = 

OBJECT_NAME    = STARLINK-36097
OBJECT_ID      = 2025-298S
CENTER_NAME    = EARTH
REF_FRAME      = TEME
TIME_SYSTEM    = UTC
MEAN_ELEMENT_THEORY = SGP/SGP4

EPOCH          = 2026-01-04T04:00:01.998720
MEAN_MOTION    = 15.52563992
ECCENTRICITY   = .0003208
INCLINATION    = 69.9988
RA_OF_ASC_NODE = 186.7665
ARG_OF_PERICENTER = 275.0775
MEAN_ANOMALY   = 39.1689

EPHEMERIS_TYPE = 0
CLASSIFICATION_TYPE = U
NORAD_CAT_ID   = 67091
ELEMENT_SET_NO = 999
REV_AT_EPOCH   = 458
BSTAR          = -.17336E-2
MEAN_MOTION_DOT = -.105587E-2
MEAN_MOTION_DDOT = 0

CCSDS_OMM_VERS = 2.0
CREATION_DATE  = 
ORIGINATOR     = 

OBJECT_NAME    = STARLINK-35792
OBJECT_ID      = 2025-298T
CENTER_NAME    = EARTH
REF_FRAME      = TEME
TIME_SYSTEM    = UTC
MEAN_ELEMENT_THEORY = SGP/SGP4

EPOCH          = 2026-01-04T04:00:01.998720
MEAN_MOTION    = 15.52576539
ECCENTRICITY   = .0003303
INCLINATION    = 69.9988
RA_OF_ASC_NODE = 186.7643
ARG_OF_PERICENTER = 268.0924
MEAN_ANOMALY   = 48.0632

EPHEMERIS_TYPE = 0
CLASSIFICATION_TYPE = U
NORAD_CAT_ID   = 67092
ELEMENT_SET_NO = 999
REV_AT_EPOCH   = 452
BSTAR          = -.19638E-2
MEAN_MOTION_DOT = -.119436E-2
MEAN_MOTION_DDOT = 0

CCSDS_OMM_VERS = 2.0
CREATION_DATE  = 
ORIGINATOR     = 

OBJECT_NAME    = STARLINK-35784
OBJECT_ID      = 2025-298U
CENTER_NAME    = EARTH
REF_FRAME      = TEME
TIME_SYSTEM    = UTC
MEAN_ELEMENT_THEORY = SGP/SGP4

EPOCH          = 2026-01-04T04:00:01.998720
MEAN_MOTION    = 15.47997044
ECCENTRICITY   = .0003291
INCLINATION    = 69.9993
RA_OF_ASC_NODE = 186.7705
ARG_OF_PERICENTER = 269.5939
MEAN_ANOMALY   = 40.3093

EPHEMERIS_TYPE = 0
CLASSIFICATION_TYPE = U
NORAD_CAT_ID   = 67093
ELEMENT_SET_NO = 999
REV_AT_EPOCH   = 458
BSTAR          = -.44801E-1
MEAN_MOTION_DOT = -.2088318E-1
MEAN_MOTION_DDOT = 0

CCSDS_OMM_VERS = 2.0
CREATION_DATE  = 
ORIGINATOR     = 

OBJECT_NAME    = STARLINK-36202
OBJECT_ID      = 2025-298V
CENTER_NAME    = EARTH
REF_FRAME      = TEME
TIME_SYSTEM    = UTC
MEAN_ELEMENT_THEORY = SGP/SGP4

EPOCH          = 2026-01-04T04:00:01.998720
MEAN_MOTION    = 15.50715148
ECCENTRICITY   = .0003421
INCLINATION    = 69.9989
RA_OF_ASC_NODE = 186.7626
ARG_OF_PERICENTER = 270.5854
MEAN_ANOMALY   = 48.0889

EPHEMERIS_TYPE = 0
CLASSIFICATION_TYPE = U
NORAD_CAT_ID   = 67094
ELEMENT_SET_NO = 999
REV_AT_EPOCH   = 458
BSTAR          = -.41176E-1
MEAN_MOTION_DOT = -.2110676E-1
MEAN_MOTION_DDOT = 0

CCSDS_OMM_VERS = 2.0
CREATION_DATE  = 
ORIGINATOR     = 

OBJECT_NAME    = STARLINK-36227
OBJECT_ID      = 2025-298W
CENTER_NAME    = EARTH
REF_FRAME      = TEME
TIME_SYSTEM    = UTC
MEAN_ELEMENT_THEORY = SGP/SGP4

EPOCH          = 2026-01-04T04:00:01.998720
MEAN_MOTION    = 15.52561924
ECCENTRICITY   = .0003271
INCLINATION    = 69.9989
RA_OF_ASC_NODE = 186.7568
ARG_OF_PERICENTER = 271.0326
MEAN_ANOMALY   = 50.8802

EPHEMERIS_TYPE = 0
CLASSIFICATION_TYPE = U
NORAD_CAT_ID   = 67095
ELEMENT_SET_NO = 999
REV_AT_EPOCH   = 452
BSTAR          = -.16529E-2
MEAN_MOTION_DOT = -.100733E-2
MEAN_MOTION_DDOT = 0

