STARLINK-36166          
1 67084U 25298K   26004.16668980 -.00112683  00000+0 -18519-2 0  9995
2 67084  69.9987 186.7830 0003268 271.5835  29.2522 15.52563884  4528
STARLINK-35794          
1 67085U 25298L   26004.16668980 -.01731290  00000+0 -40401-1 0  9992
2 67085  69.9995 186.8005 0003138 275.4222   8.2325 15.45490560  4588
STARLINK-35841          
1 67086U 25298M   26004.16668980 -.00111840  00000+0 -18377-2 0  9993
2 67086  69.9988 186.7782 0003275 272.9600  31.7024 15.52566652  4587
STARLINK-35842          
1 67087U 25298N   26004.16668980 -.00128549  00000+0 -29758-2 0  9993
2 67087  69.9992 187.0772 0003426 267.7421 137.1765 15.42761748  4582
STARLINK-35882          
1 67088U 25298P   26004.16668980 -.00081236  00000+0 -13300-2 0  9991
2 67088  69.9989 186.7740 0003361 274.7935  33.7204 15.52544991  4585
STARLINK-35763          
1 67089U 25298Q   26004.16668980 -.00048785  00000+0 -79423-3 0  9993
2 67089  69.9989 186.7716 0003259 273.0289  37.3898 15.52550118  4586
STARLINK-36060          
1 67090U 25298R   26004.16668980 -.00158575  00000+0 -26195-2 0  9991
2 67090  69.9988 186.7691 0003271 267.8458  44.4834 15.52593466  4528
STARLINK-36097          
1 67091U 25298S   26004.16668980 -.00105587  00000+0 -17336-2 0  9994
2 67091  69.9988 186.7665 0003208 275.0775  39.1689 15.52563992  4589
STARLINK-35792          
1 67092U 25298T   26004.16668980 -.00119436  00000+0 -19638-2 0  9990
2 67092  69.9988 186.7643 0003303 268.0924  48.0632 15.52576539  4522
STARLINK-35784          
1 67093U 25298U   26004.16668980 -.02088318  00000+0 -44801-1 0  9996
2 67093  69.9993 186.7705 0003291 269.5939  40.3093 15.47997044  4580
STARLINK-36202          
1 67094U 25298V   26004.16668980 -.02110676  00000+0 -41176-1 0  9992
2 67094  69.9989 186.7626 0003421 270.5854  48.0889 15.50715148  4586
STARLINK-36227          
1 67095U 25298W   26004.16668980 -.00100733  00000+0 -16529-2 0  9999
2 67095  69.9989 186.7568 0003271 271.0326  50.8802 15.52561924  4528
